NORAD_CAT_ID,OBJECT_NAME,OBJECT_TYPE,EPOCH,MEAN_MOTION,ECCENTRICITY,INCLINATION,RA_OF_ASC_NODE,ARG_OF_PERICENTER,MEAN_ANOMALY,BSTAR,MEAN_MOTION_DOT,MEAN_MOTION_DDOT,TLE_LINE0,TLE_LINE1,TLE_LINE2,SEMIMAJOR_AXIS,PERIOD,APOGEE,PERIGEE,DECAYED
53895.0,STARLINK-5032,PAYLOAD,2023-11-05 21:55:39,15.08883489,0.0001996,53.2189,201.275,126.1485,233.9692,0.00034083,5.147e-05,0.0,0 STARLINK-5032,1 53895U 22119K   23309.91364689  .00005147  00000-0  34083-3 0  9996,2 53895  53.2189 201.2750 0001996 126.1485 233.9692 15.08883489 62645,6917.747,95.435,540.993,538.232,0.0
53895.0,STARLINK-5032,PAYLOAD,2023-11-06 02:41:48,15.08889414,0.0001426,53.2178,200.3807,94.7729,265.3426,0.00026405,3.922e-05,0.0,0 STARLINK-5032,1 53895U 22119K   23310.11236269  .00003922  00000-0  26405-3 0  9990,2 53895  53.2178 200.3807 0001426  94.7729 265.3426 15.08889414 62250,6917.729,95.434,540.581,538.608,0.0
53895.0,STARLINK-5032,PAYLOAD,2023-11-06 20:11:07,15.08824959,0.0001349,53.2176,197.1115,101.1312,258.9832,-9.7683e-05,-1.842e-05,0.0,0 STARLINK-5032,1 53895U 22119K   23310.84105398 -.00001842  00000-0 -97683-4 0  9996,2 53895  53.2176 197.1115 0001349 101.1312 258.9832 15.08824959 62362,6917.926,95.439,540.725,538.858,0.0
53895.0,STARLINK-5032,PAYLOAD,2023-11-06 21:46:32,15.08793986,0.000143,53.2172,196.8132,95.509,264.6065,-0.00037506,-6.244e-05,0.0,0 STARLINK-5032,1 53895U 22119K   23310.90732141 -.00006244  00000-0 -37506-3 0  9993,2 53895  53.2172 196.8132 0001430  95.5090 264.6065 15.08793986 62797,6918.021,95.44,540.875,538.897,0.0
53895.0,STARLINK-5032,PAYLOAD,2023-11-06 23:21:55,15.08798112,0.0001379,53.2175,196.5182,80.2998,279.8149,-0.00045288,-7.48e-05,0.0,0 STARLINK-5032,1 53895U 22119K   23310.97356413 -.00007480  00000-0 -45288-3 0  9993,2 53895  53.2175 196.5182 0001379  80.2998 279.8149 15.08798112 62384,6918.008,95.44,540.827,538.919,0.0
53895.0,STARLINK-5032,PAYLOAD,2023-11-07 08:54:14,15.08803942,0.0001322,53.2173,194.7338,81.9015,278.2127,-0.00036526,-6.09e-05,0.0,0 STARLINK-5032,1 53895U 22119K   23311.37100604 -.00006090  00000-0 -36526-3 0  9998,2 53895  53.2173 194.7338 0001322  81.9015 278.2127 15.08803942 62445,6917.991,95.44,540.77,538.941,0.0
53895.0,STARLINK-5032,PAYLOAD,2023-11-07 20:01:56,15.08813737,0.00013,53.2175,192.6515,85.3505,274.7636,-0.00031106,-5.231e-05,0.0,0 STARLINK-5032,1 53895U 22119K   23311.83468494 -.00005231  00000-0 -31106-3 0  9998,2 53895  53.2175 192.6515 0001300  85.3505 274.7636 15.08813737 62516,6917.961,95.439,540.725,538.926,0.0
53895.0,STARLINK-5032,PAYLOAD,2023-11-08 02:23:28,15.08836298,0.0001423,53.2171,191.4618,83.6171,276.4984,-0.00033119,-5.554e-05,0.0,0 STARLINK-5032,1 53895U 22119K   23312.09963742 -.00005554  00000-0 -33119-3 0  9997,2 53895  53.2171 191.4618 0001423  83.6171 276.4984 15.08836298 62555,6917.892,95.438,540.741,538.772,0.0
53895.0,STARLINK-5032,PAYLOAD,2023-11-08 23:03:28,15.08820415,0.0001497,53.2176,187.6002,101.7775,258.3386,0.00047432,7.265e-05,0.0,0 STARLINK-5032,1 53895U 22119K   23312.96074505  .00007265  00000-0  47432-3 0  9995,2 53895  53.2176 187.6002 0001497 101.7775 258.3386 15.08820415 63108,6917.94,95.439,540.841,538.77,0.0
53895.0,STARLINK-5032,PAYLOAD,2023-11-09 02:14:14,15.08823038,0.000133,53.2167,187.0012,82.2812,277.8331,0.00057693,8.902e-05,0.0,0 STARLINK-5032,1 53895U 22119K   23313.09322127  .00008902  00000-0  57693-3 0  9995,2 53895  53.2167 187.0012 0001330  82.2812 277.8331 15.08823038 62709,6917.932,95.439,540.717,538.877,0.0
53895.0,STARLINK-5032,PAYLOAD,2023-11-09 21:18:52,15.08839479,0.0001576,53.2172,183.4375,85.856,274.2612,0.00021418,3.122e-05,0.0,0 STARLINK-5032,1 53895U 22119K   23313.88810918  .00003122  00000-0  21418-3 0  9997,2 53895  53.2172 183.4375 0001576  85.8560 274.2612 15.08839479 63247,6917.882,95.438,540.837,538.657,0.0
53895.0,STARLINK-5032,PAYLOAD,2023-11-10 08:26:34,15.08839822,0.0001632,53.2166,181.3517,81.1899,278.9278,0.00012516,1.704e-05,0.0,0 STARLINK-5032,1 53895U 22119K   23314.35179019  .00001704  00000-0  12516-3 0  9993,2 53895  53.2166 181.3517 0001632  81.1899 278.9278 15.08839822 62893,6917.881,95.438,540.875,538.617,0.0
53895.0,STARLINK-5032,PAYLOAD,2023-11-10 21:09:39,15.08852155,0.0001566,53.2165,178.9723,82.7811,277.3359,-0.00011542,-2.125e-05,0.0,0 STARLINK-5032,1 53895U 22119K   23314.88170724 -.00002125  00000-0 -11542-3 0  9993,2 53895  53.2165 178.9723 0001566  82.7811 277.3359 15.08852155 63393,6917.843,95.437,540.792,538.625,0.0
53895.0,STARLINK-5032,PAYLOAD,2023-11-11 00:20:25,15.08855071,0.0001503,53.2166,178.3785,86.4699,273.6465,-6.8817e-05,-1.384e-05,0.0,0 STARLINK-5032,1 53895U 22119K   23315.01418281 -.00001384  00000-0 -68817-4 0  9996,2 53895  53.2166 178.3785 0001503  86.4699 273.6465 15.08855071 62994,6917.834,95.437,540.739,538.66,0.0
53895.0,STARLINK-5032,PAYLOAD,2023-11-11 19:25:03,15.08848753,0.0001485,53.2167,174.8076,98.4253,261.6908,-0.00011836,-2.172e-05,0.0,0 STARLINK-5032,1 53895U 22119K   23315.80906350 -.00002172  00000-0 -11836-3 0  9996,2 53895  53.2167 174.8076 0001485  98.4253 261.6908 15.08848753 63110,6917.854,95.437,540.746,538.691,0.0
53895.0,STARLINK-5032,PAYLOAD,2023-11-11 21:00:25,15.08849751,0.0001365,53.2158,174.5097,98.2161,261.8986,-9.0106e-05,-1.722e-05,0.0,0 STARLINK-5032,1 53895U 22119K   23315.87530067 -.00001722  00000-0 -90106-4 0  9999,2 53895  53.2158 174.5097 0001365  98.2161 261.8986 15.08849751 63547,6917.851,95.437,540.66,538.771,0.0
53895.0,STARLINK-5032,PAYLOAD,2023-11-12 08:08:08,15.08844312,0.0001507,53.2172,172.4278,93.9969,266.1196,-9.8248e-05,-1.851e-05,0.0,0 STARLINK-5032,1 53895U 22119K   23316.33898236 -.00001851  00000-0 -98248-4 0  9994,2 53895  53.2172 172.4278 0001507  93.9969 266.1196 15.08844312 63614,6917.867,95.437,540.775,538.69,0.0
53895.0,STARLINK-5032,PAYLOAD,2023-11-12 19:15:50,15.08838309,0.0001709,53.2175,170.3467,89.1279,270.9909,3.9163e-06,-2.26e-06,0.0,0 STARLINK-5032,1 53895U 22119K   23316.80266379 -.00000226  00000-0  39163-5 0  9999,2 53895  53.2175 170.3467 0001709  89.1279 270.9909 15.08838309 63264,6917.886,95.438,540.933,538.568,0.0
53895.0,STARLINK-5032,PAYLOAD,2023-11-12 20:51:13,15.08841052,0.0001663,53.2174,170.0482,87.8077,272.3105,-1.2173e-05,-4.82e-06,0.0,0 STARLINK-5032,1 53895U 22119K   23316.86890264 -.00000482  00000-0 -12173-4 0  9997,2 53895  53.2174 170.0482 0001663  87.8077 272.3105 15.08841052 63697,6917.877,95.437,540.893,538.592,0.0
53895.0,STARLINK-5032,PAYLOAD,2023-11-13 14:20:27,15.08801715,0.0001848,53.2171,166.7775,102.503,257.6169,0.00049318,7.562e-05,0.0,0 STARLINK-5032,1 53895U 22119K   23317.59753932  .00007562  00000-0  49318-3 0  9992,2 53895  53.2171 166.7775 0001848 102.5030 257.6169 15.08801715 63384,6917.997,95.44,541.141,538.584,0.0
53895.0,STARLINK-5032,PAYLOAD,2023-11-13 23:52:45,15.08850268,0.000165,53.2169,164.9934,97.868,262.25,-2.9026e-05,-7.5e-06,0.0,0 STARLINK-5032,1 53895U 22119K   23317.99497567 -.00000750  00000-0 -29026-4 0  9994,2 53895  53.2169 164.9934 0001650  97.8680 262.2500 15.08850268 63441,6917.849,95.437,540.855,538.573,0.0
53895.0,STARLINK-5032,PAYLOAD,2023-11-14 20:32:47,15.08841566,0.0001624,53.2158,161.1294,90.7957,269.3221,-5.1459e-05,-1.107e-05,0.0,0 STARLINK-5032,1 53895U 22119K   23318.85610185 -.00001107  00000-0 -51459-4 0  9995,2 53895  53.2158 161.1294 0001624  90.7957 269.3221 15.08841566 63570,6917.876,95.437,540.864,538.617,0.0
53895.0,STARLINK-5032,PAYLOAD,2023-11-15 14:02:01,15.08865919,0.0001214,53.2165,157.8591,95.4859,264.6272,-0.00038142,-6.357e-05,0.0,0 STARLINK-5032,1 53895U 22119K   23319.58474275 -.00006357  00000-0 -38142-3 0  9999,2 53895  53.2165 157.8591 0001214  95.4859 264.6272 15.08865919 64100,6917.801,95.436,540.506,538.826,0.0
53895.0,STARLINK-5032,PAYLOAD,2023-11-15 20:23:34,15.08840145,0.000142,53.2155,156.6703,93.5813,266.5341,-2.8694e-05,-7.45e-06,0.0,0 STARLINK-5032,1 53895U 22119K   23319.84970330 -.00000745  00000-0 -28694-4 0  9998,2 53895  53.2155 156.6703 0001420  93.5813 266.5341 15.08840145 64145,6917.88,95.438,540.727,538.763,0.0
53895.0,STARLINK-5032,PAYLOAD,2023-11-15 23:34:20,15.08840055,0.0001422,53.2155,156.0756,93.6198,266.4956,-2.7223e-05,-7.21e-06,0.0,0 STARLINK-5032,1 53895U 22119K   23319.98218334 -.00000721  00000-0 -27223-4 0  9993,2 53895  53.2155 156.0756 0001422  93.6198 266.4956 15.08840055 63742,6917.88,95.438,540.729,538.761,0.0
53895.0,STARLINK-5032,PAYLOAD,2023-11-16 12:17:25,15.08834554,0.0001396,53.2157,153.6968,93.4623,266.6529,2.4581e-05,1.03e-06,0.0,0 STARLINK-5032,1 53895U 22119K   23320.51210571  .00000103  00000-0  24581-4 0  9995,2 53895  53.2157 153.6968 0001396  93.4623 266.6529 15.08834554 64244,6917.897,95.438,540.728,538.796,0.0
53895.0,STARLINK-5032,PAYLOAD,2023-11-16 20:14:21,15.08835442,0.0001388,53.2158,152.2099,93.0153,267.0998,3.0757e-05,2.02e-06,0.0,0 STARLINK-5032,1 53895U 22119K   23320.84330564  .00000202  00000-0  30757-4 0  9998,2 53895  53.2158 152.2099 0001388  93.0153 267.0998 15.08835442 64297,6917.894,95.438,540.72,538.799,0.0
53895.0,STARLINK-5032,PAYLOAD,2023-11-17 12:08:13,15.08836485,0.0001403,53.2157,149.2362,92.977,267.1383,1.6591e-05,-2.4e-07,0.0,0 STARLINK-5032,1 53895U 22119K   23321.50570698 -.00000024  00000-0  16591-4 0  9999,2 53895  53.2157 149.2362 0001403  92.9770 267.1383 15.08836485 63977,6917.891,95.438,540.727,538.786,0.0
53895.0,STARLINK-5032,PAYLOAD,2023-11-18 13:34:23,15.08839993,0.0001405,53.2157,144.4783,92.0463,268.069,3.8853e-05,3.3e-06,0.0,0 STARLINK-5032,1 53895U 22119K   23322.56554517  .00000330  00000-0  38853-4 0  9992,2 53895  53.2157 144.4783 0001405  92.0463 268.0690 15.08839993 64556,6917.88,95.438,540.717,538.773,0.0
53895.0,STARLINK-5032,PAYLOAD,2023-11-18 18:20:32,15.08841154,0.0001402,53.2161,143.5864,92.4045,267.7108,4.5696e-05,4.39e-06,0.0,0 STARLINK-5032,1 53895U 22119K   23322.76426407  .00000439  00000-0  45696-4 0  9993,2 53895  53.2161 143.5864 0001402  92.4045 267.7108 15.08841154 64167,6917.877,95.437,540.712,538.772,0.0
